DELTA 1 R/B             
1 20323U 89089B   25300.14617319  .00000488  00000+0  12964-3 0  9990
2 20323  97.0806 163.7577 0069014 183.3875 176.6865 14.50514834876378
ARIANE 40 R/B           
1 20443U 90005H   25300.17700917  .00000470  00000+0  16358-3 0  9995
2 20443  98.3305 359.6565 0009119 243.2889 116.7366 14.39744653873596
DELTA 2 R/B(1)          
1 20453U 90008B   25300.16624113  .00032049  00000+0  58318-3 0  9990
2 20453  35.6080 320.3072 0118458 114.9336 246.3757 15.41037914905439
COSMOS 2058             
1 20465U 90010A   25300.04577039  .00004346  00000+0  26574-3 0  9995
2 20465  82.4704 178.9543 0011328  70.7748 289.4706 15.09963066922069
SL-14 R/B               
1 20466U 90010B   25300.20324544  .00000721  00000+0  84752-4 0  9991
2 20466  82.5053  32.7418 0020398  23.9235 336.2923 14.83407225908690
SL-14 R/B               
1 20511U 90018B   25300.16016645  .00000598  00000+0  72371-4 0  9991
2 20511  82.5228 347.9036 0016777 166.5182 193.6484 14.81982722902805
HST                     
1 20580U 90037B   25300.14590575  .00008748  00000+0  31098-3 0  9990
2 20580  28.4675 229.4219 0002136  75.7438 284.3394 15.27166615752865
SL-16 R/B               
1 20625U 90046B   25300.15935659  .00000224  00000+0  14039-3 0  9994
2 20625  70.9999 218.3413 0013089 155.9184 204.2554 14.14990850829503
COSMOS 2084             
1 20663U 90055A   25299.91889544  .00005490  00000+0  39678-3 0  9994
2 20663  62.7910  71.4769 0039655 169.1748 191.0214 15.04581281916180
SL-6 R/B(2)             
1 20666U 90055D   25300.05929206  .00002928  00000+0  23237-3 0  9992
2 20666  62.7849 347.9878 0010721 265.6309  94.3565 15.02734428918103
SL-8 R/B                
1 20775U 90078B   25300.16050382  .00015693  00000+0  48590-3 0  9992
2 20775  82.9087  10.9043 0383826 101.4326 263.0253 14.83625967789467
SL-8 R/B                
1 21088U 91006B   25300.18025593  .00000189  00000+0  17412-3 0  9993
2 21088  82.9393 269.3503 0023684  51.4437 319.2311 13.77479112745693
