CCSDS_OMM_VERS = 2.0
CREATION_DATE  = 
ORIGINATOR     = 

OBJECT_NAME    = DELTA 1 R/B
OBJECT_ID      = 1989-089B
CENTER_NAME    = EARTH
REF_FRAME      = TEME
TIME_SYSTEM    = UTC
MEAN_ELEMENT_THEORY = SGP/SGP4

EPOCH          = 2025-10-27T03:30:29.363616
MEAN_MOTION    = 14.50514834
ECCENTRICITY   = .0069014
INCLINATION    = 97.0806
RA_OF_ASC_NODE = 163.7577
ARG_OF_PERICENTER = 183.3875
MEAN_ANOMALY   = 176.6865

EPHEMERIS_TYPE = 0
CLASSIFICATION_TYPE = U
NORAD_CAT_ID   = 20323
ELEMENT_SET_NO = 999
REV_AT_EPOCH   = 87637
BSTAR          = .12964E-3
MEAN_MOTION_DOT = .488E-5
MEAN_MOTION_DDOT = 0

CCSDS_OMM_VERS = 2.0
CREATION_DATE  = 
ORIGINATOR     = 

OBJECT_NAME    = ARIANE 40 R/B
OBJECT_ID      = 1990-005H
CENTER_NAME    = EARTH
REF_FRAME      = TEME
TIME_SYSTEM    = UTC
MEAN_ELEMENT_THEORY = SGP/SGP4

EPOCH          = 2025-10-27T04:14:53.592288
MEAN_MOTION    = 14.39744653
ECCENTRICITY   = .0009119
INCLINATION    = 98.3305
RA_OF_ASC_NODE = 359.6565
ARG_OF_PERICENTER = 243.2889
MEAN_ANOMALY   = 116.7366

EPHEMERIS_TYPE = 0
CLASSIFICATION_TYPE = U
NORAD_CAT_ID   = 20443
ELEMENT_SET_NO = 999
REV_AT_EPOCH   = 87359
BSTAR          = .16358E-3
MEAN_MOTION_DOT = .47E-5
MEAN_MOTION_DDOT = 0

CCSDS_OMM_VERS = 2.0
CREATION_DATE  = 
ORIGINATOR     = 

OBJECT_NAME    = DELTA 2 R/B(1)
OBJECT_ID      = 1990-008B
CENTER_NAME    = EARTH
REF_FRAME      = TEME
TIME_SYSTEM    = UTC
MEAN_ELEMENT_THEORY = SGP/SGP4

EPOCH          = 2025-10-27T03:59:23.233632
MEAN_MOTION    = 15.41037914
ECCENTRICITY   = .0118458
INCLINATION    = 35.6080
RA_OF_ASC_NODE = 320.3072
ARG_OF_PERICENTER = 114.9336
MEAN_ANOMALY   = 246.3757

EPHEMERIS_TYPE = 0
CLASSIFICATION_TYPE = U
NORAD_CAT_ID   = 20453
ELEMENT_SET_NO = 999
REV_AT_EPOCH   = 90543
BSTAR          = .58318E-3
MEAN_MOTION_DOT = .32049E-3
MEAN_MOTION_DDOT = 0

CCSDS_OMM_VERS = 2.0
CREATION_DATE  = 
ORIGINATOR     = 

OBJECT_NAME    = COSMOS 2058
OBJECT_ID      = 1990-010A
CENTER_NAME    = EARTH
REF_FRAME      = TEME
TIME_SYSTEM    = UTC
MEAN_ELEMENT_THEORY = SGP/SGP4

EPOCH          = 2025-10-27T01:05:54.561696
MEAN_MOTION    = 15.09963066
ECCENTRICITY   = .0011328
INCLINATION    = 82.4704
RA_OF_ASC_NODE = 178.9543
ARG_OF_PERICENTER = 70.7748
MEAN_ANOMALY   = 289.4706

EPHEMERIS_TYPE = 0
CLASSIFICATION_TYPE = U
NORAD_CAT_ID   = 20465
ELEMENT_SET_NO = 999
REV_AT_EPOCH   = 92206
BSTAR          = .26574E-3
MEAN_MOTION_DOT = .4346E-4
MEAN_MOTION_DDOT = 0

CCSDS_OMM_VERS = 2.0
CREATION_DATE  = 
ORIGINATOR     = 

OBJECT_NAME    = SL-14 R/B
OBJECT_ID      = 1990-010B
CENTER_NAME    = EARTH
REF_FRAME      = TEME
TIME_SYSTEM    = UTC
MEAN_ELEMENT_THEORY = SGP/SGP4

EPOCH          = 2025-10-27T04:52:40.406016
MEAN_MOTION    = 14.83407225
ECCENTRICITY   = .0020398
INCLINATION    = 82.5053
RA_OF_ASC_NODE = 32.7418
ARG_OF_PERICENTER = 23.9235
MEAN_ANOMALY   = 336.2923

EPHEMERIS_TYPE = 0
CLASSIFICATION_TYPE = U
NORAD_CAT_ID   = 20466
ELEMENT_SET_NO = 999
REV_AT_EPOCH   = 90869
BSTAR          = .84752E-4
MEAN_MOTION_DOT = .721E-5
MEAN_MOTION_DDOT = 0

CCSDS_OMM_VERS = 2.0
CREATION_DATE  = 
ORIGINATOR     = 

OBJECT_NAME    = SL-14 R/B
OBJECT_ID      = 1990-018B
CENTER_NAME    = EARTH
REF_FRAME      = TEME
TIME_SYSTEM    = UTC
MEAN_ELEMENT_THEORY = SGP/SGP4

EPOCH          = 2025-10-27T03:50:38.381280
MEAN_MOTION    = 14.81982722
ECCENTRICITY   = .0016777
INCLINATION    = 82.5228
RA_OF_ASC_NODE = 347.9036
ARG_OF_PERICENTER = 166.5182
MEAN_ANOMALY   = 193.6484

EPHEMERIS_TYPE = 0
CLASSIFICATION_TYPE = U
NORAD_CAT_ID   = 20511
ELEMENT_SET_NO = 999
REV_AT_EPOCH   = 90280
BSTAR          = .72371E-4
MEAN_MOTION_DOT = .598E-5
MEAN_MOTION_DDOT = 0

CCSDS_OMM_VERS = 2.0
CREATION_DATE  = 
ORIGINATOR     = 

OBJECT_NAME    = HST
OBJECT_ID      = 1990-037B
CENTER_NAME    = EARTH
REF_FRAME      = TEME
TIME_SYSTEM    = UTC
MEAN_ELEMENT_THEORY = SGP/SGP4

EPOCH          = 2025-10-27T03:30:06.256800
MEAN_MOTION    = 15.27166615
ECCENTRICITY   = .0002136
INCLINATION    = 28.4675
RA_OF_ASC_NODE = 229.4219
ARG_OF_PERICENTER = 75.7438
MEAN_ANOMALY   = 284.3394

EPHEMERIS_TYPE = 0
CLASSIFICATION_TYPE = U
NORAD_CAT_ID   = 20580
ELEMENT_SET_NO = 999
REV_AT_EPOCH   = 75286
BSTAR          = .31098E-3
MEAN_MOTION_DOT = .8748E-4
MEAN_MOTION_DDOT = 0

CCSDS_OMM_VERS = 2.0
CREATION_DATE  = 
ORIGINATOR     = 

OBJECT_NAME    = SL-16 R/B
OBJECT_ID      = 1990-046B
CENTER_NAME    = EARTH
REF_FRAME      = TEME
TIME_SYSTEM    = UTC
MEAN_ELEMENT_THEORY = SGP/SGP4

EPOCH          = 2025-10-27T03:49:28.409376
MEAN_MOTION    = 14.14990850
ECCENTRICITY   = .0013089
INCLINATION    = 70.9999
RA_OF_ASC_NODE = 218.3413
ARG_OF_PERICENTER = 155.9184
MEAN_ANOMALY   = 204.2554

EPHEMERIS_TYPE = 0
CLASSIFICATION_TYPE = U
NORAD_CAT_ID   = 20625
ELEMENT_SET_NO = 999
REV_AT_EPOCH   = 82950
BSTAR          = .14039E-3
MEAN_MOTION_DOT = .224E-5
MEAN_MOTION_DDOT = 0

CCSDS_OMM_VERS = 2.0
CREATION_DATE  = 
ORIGINATOR     = 

OBJECT_NAME    = COSMOS 2084
OBJECT_ID      = 1990-055A
CENTER_NAME    = EARTH
REF_FRAME      = TEME
TIME_SYSTEM    = UTC
MEAN_ELEMENT_THEORY = SGP/SGP4

EPOCH          = 2025-10-26T22:03:12.566016
MEAN_MOTION    = 15.04581281
ECCENTRICITY   = .0039655
INCLINATION    = 62.7910
RA_OF_ASC_NODE = 71.4769
ARG_OF_PERICENTER = 169.1748
MEAN_ANOMALY   = 191.0214

EPHEMERIS_TYPE = 0
CLASSIFICATION_TYPE = U
NORAD_CAT_ID   = 20663
ELEMENT_SET_NO = 999
REV_AT_EPOCH   = 91618
BSTAR          = .39678E-3
MEAN_MOTION_DOT = .549E-4
MEAN_MOTION_DDOT = 0

CCSDS_OMM_VERS = 2.0
CREATION_DATE  = 
ORIGINATOR     = 

OBJECT_NAME    = SL-6 R/B(2)
OBJECT_ID      = 1990-055D
CENTER_NAME    = EARTH
REF_FRAME      = TEME
TIME_SYSTEM    = UTC
MEAN_ELEMENT_THEORY = SGP/SGP4

EPOCH          = 2025-10-27T01:25:22.833984
MEAN_MOTION    = 15.02734428
ECCENTRICITY   = .0010721
INCLINATION    = 62.7849
RA_OF_ASC_NODE = 347.9878
ARG_OF_PERICENTER = 265.6309
MEAN_ANOMALY   = 94.3565

EPHEMERIS_TYPE = 0
CLASSIFICATION_TYPE = U
NORAD_CAT_ID   = 20666
ELEMENT_SET_NO = 999
REV_AT_EPOCH   = 91810
BSTAR          = .23237E-3
MEAN_MOTION_DOT = .2928E-4
MEAN_MOTION_DDOT = 0

CCSDS_OMM_VERS = 2.0
CREATION_DATE  = 
ORIGINATOR     = 

OBJECT_NAME    = SL-8 R/B
OBJECT_ID      = 1990-078B
CENTER_NAME    = EARTH
REF_FRAME      = TEME
TIME_SYSTEM    = UTC
MEAN_ELEMENT_THEORY = SGP/SGP4

EPOCH          = 2025-10-27T03:51:07.530048
MEAN_MOTION    = 14.83625967
ECCENTRICITY   = .0383826
INCLINATION    = 82.9087
RA_OF_ASC_NODE = 10.9043
ARG_OF_PERICENTER = 101.4326
MEAN_ANOMALY   = 263.0253

EPHEMERIS_TYPE = 0
CLASSIFICATION_TYPE = U
NORAD_CAT_ID   = 20775
ELEMENT_SET_NO = 999
REV_AT_EPOCH   = 78946
BSTAR          = .4859E-3
MEAN_MOTION_DOT = .15693E-3
MEAN_MOTION_DDOT = 0

CCSDS_OMM_VERS = 2.0
CREATION_DATE  = 
ORIGINATOR     = 

OBJECT_NAME    = SL-8 R/B
OBJECT_ID      = 1991-006B
CENTER_NAME    = EARTH
REF_FRAME      = TEME
TIME_SYSTEM    = UTC
MEAN_ELEMENT_THEORY = SGP/SGP4

EPOCH          = 2025-10-27T04:19:34.112352
MEAN_MOTION    = 13.77479112
ECCENTRICITY   = .0023684
INCLINATION    = 82.9393
RA_OF_ASC_NODE = 269.3503
ARG_OF_PERICENTER = 51.4437
MEAN_ANOMALY   = 319.2311

EPHEMERIS_TYPE = 0
CLASSIFICATION_TYPE = U
NORAD_CAT_ID   = 21088
ELEMENT_SET_NO = 999
REV_AT_EPOCH   = 74569
BSTAR          = .17412E-3
MEAN_MOTION_DOT = .189E-5
MEAN_MOTION_DDOT = 0

